sat20131
1 20131U 65027BD  20046.47372383  .00000120  00000-0  38187-3 0  9999
2 20131  90.2992 308.7977 0038204 316.3389 220.9285 12.98600895464506
